{
  "type": "FeatureCollection",
  "name": "Зоны Единой системы организации воздушного движения Российской Федерации",
  "metadata": {
    "generated_at": "2026-09-16T10:17:43+00:00",
    "source_document": "Приказ Минтранса России от 23.07.2020 N 248",
    "source_edition_date": "2023-10-30",
    "source_appendix": 1,
    "scope": "Границы зон Единой системы организации воздушного движения Российской Федерации",
    "unique_zone_count": 14,
    "feature_count": 16,
    "geometry_type_counts": {
      "MultiPolygon": 2,
      "Polygon": 14
    },
    "vertically_partitioned_zones": [
      "Магаданская зона",
      "Якутская зона"
    ],
    "features_with_approximated_state_border_segments": [
      "1.1",
      "2.1",
      "4.1",
      "5.1",
      "6.1",
      "7.1",
      "8.1",
      "10.1",
      "11.1",
      "12.1",
      "15.1"
    ],
    "coordinate_reference_system": "WGS 84 (RFC 7946 longitude, latitude)",
    "source_notice": "The official order is authoritative for names, listed coordinates and vertical limits. Where the order says 'along the state border', this dataset connects the stated points with straight segments and marks the feature as an approximation. Geometry must be verified against current aeronautical information before operational use."
  },
  "features": [
    {
      "type": "Feature",
      "id": "order248-zone-01-part-1",
      "geometry": {
        "type": "MultiPolygon",
        "coordinates": [
          [
            [
              [
                180,
                90.0
              ],
              [
                180,
                86.24072455
              ],
              [
                114.75,
                78.0
              ],
              [
                89.5,
                77.33333333
              ],
              [
                81.83333333,
                75.33333333
              ],
              [
                70.68333333,
                74.5
              ],
              [
                70.91666667,
                73.66666667
              ],
              [
                68.66666667,
                73.66666667
              ],
              [
                66.28333333,
                71.5
              ],
              [
                65.66666667,
                70.83333333
              ],
              [
                66.78333333,
                68.86666667
              ],
              [
                68.0,
                68.43333333
              ],
              [
                67.03333333,
                67.4
              ],
              [
                63.43333333,
                66.46666667
              ],
              [
                60.06666667,
                64.46666667
              ],
              [
                59.71666667,
                63.2
              ],
              [
                59.5,
                62.0
              ],
              [
                57.21666667,
                61.16666667
              ],
              [
                55.7,
                60.71666667
              ],
              [
                52.0,
                60.0
              ],
              [
                50.0,
                60.0
              ],
              [
                48.66666667,
                60.33333333
              ],
              [
                46.33333333,
                60.06666667
              ],
              [
                45.5,
                59.51666667
              ],
              [
                45.0,
                58.76666667
              ],
              [
                35.81666667,
                58.58333333
              ],
              [
                34.56666667,
                58.2
              ],
              [
                32.55,
                57.35
              ],
              [
                31.16666667,
                56.91666667
              ],
              [
                30.91666667,
                55.61666667
              ],
              [
                28.04333333,
                59.47166667
              ],
              [
                27.63666667,
                59.61166667
              ],
              [
                25.86666667,
                59.88333333
              ],
              [
                26.55,
                60.13333333
              ],
              [
                27.29305556,
                60.20027778
              ],
              [
                30.83333333,
                69.8
              ],
              [
                31.13333333,
                70.0
              ],
              [
                32.08333333,
                70.16666667
              ],
              [
                32.08333333,
                74.0
              ],
              [
                35.0,
                74.0
              ],
              [
                35.0,
                81.0
              ],
              [
                32.0,
                81.0
              ],
              [
                32.0,
                90.0
              ],
              [
                180,
                90.0
              ]
            ]
          ],
          [
            [
              [
                -180,
                90.0
              ],
              [
                -168.97333333,
                90.0
              ],
              [
                -168.97333333,
                87.63333333
              ],
              [
                -180,
                86.24072455
              ],
              [
                -180,
                90.0
              ]
            ]
          ]
        ]
      },
      "properties": {
        "feature_type": "es_orvd_zone",
        "zone_order_number": 1,
        "zone_part_number": 1,
        "zone_part_count": 1,
        "zone_name": "Санкт-Петербургская зона",
        "horizontal_definition": "Северный полюс, 873800с <1> 1685824з <2>, 780000с 1144500в, 772000с 0893000в, 752000с 0815000в 743000с 0704100в, 734000с 0705500в, 734000с 0684000в, 713000с 0661700в, 705000с 0654000в, 685200с 0664700в, 682600с 0680000в, 672400с 0670200в, 662800с 0632600в, 642800с 0600400в, 631200с 0594300в, 620000с 0593000в, 611000с 0571300в, 604300с 0554200в, 600000с 0520000в, 600000с 0500000в, 602000с 0484000в, 600400с 0462000в, 593100с 0453000в, 584600с 0450000в, 583500с 0354900в, 581200с 0343400в, 572100с 0323300в, 565500с 0311000в, 553700с 0305500в, далее по государственной границе до 592818с 0280236в, 593642с 0273812в, 595300с 0255200в, 600800с 0263300в, 601201с 0271735в, далее по государственной границе до 694800с 0305000в, 700000с 0310800в, 701000с 0320500в, 740000с 0320500в, 740000с 0350000в, 810000с 0350000в, 810000с 0320000в, Северный полюс",
        "vertical_definition": "Все высоты",
        "lower_limit": "GND",
        "lower_limit_inclusive": true,
        "upper_limit": "UNL",
        "upper_limit_inclusive": true,
        "geometry_source": "official_order_coordinates",
        "geometry_accuracy": "official_approximation",
        "geometry_note": "Segments described as following the state border are represented by straight lines between the boundary points stated in the order.",
        "source_table_row": 4,
        "amendment_notes": "(п. 1 в ред. Приказа Минтранса России от 19.11.2021 N 397)",
        "official_source": "Приказ Минтранса России от 23.07.2020 N 248",
        "official_edition_date": "2023-10-30",
        "effective_from": "2020-12-03"
      }
    },
    {
      "type": "Feature",
      "id": "order248-zone-02-part-1",
      "geometry": {
        "type": "Polygon",
        "coordinates": [
          [
            [
              18.01833333,
              56.095
            ],
            [
              20.64333333,
              55.37333333
            ],
            [
              20.95666667,
              55.28166667
            ],
            [
              19.64166667,
              54.45833333
            ],
            [
              19.40666667,
              54.60333333
            ],
            [
              17.55,
              55.85
            ],
            [
              18.01833333,
              56.095
            ]
          ]
        ]
      },
      "properties": {
        "feature_type": "es_orvd_zone",
        "zone_order_number": 2,
        "zone_part_number": 1,
        "zone_part_count": 1,
        "zone_name": "Калининградская зона",
        "horizontal_definition": "560542с 0180106в, 552224с 0203836в, 551654с 0205724в, далее по государственной границе до 542730с 0193830в, 543612с 0192424в, 555100с 0173300в, 560542с 0180106в",
        "vertical_definition": "Все высоты",
        "lower_limit": "GND",
        "lower_limit_inclusive": true,
        "upper_limit": "UNL",
        "upper_limit_inclusive": true,
        "geometry_source": "official_order_coordinates",
        "geometry_accuracy": "official_approximation",
        "geometry_note": "Segments described as following the state border are represented by straight lines between the boundary points stated in the order.",
        "source_table_row": 6,
        "amendment_notes": "(в ред. Приказа Минтранса России от 19.11.2021 N 397)",
        "official_source": "Приказ Минтранса России от 23.07.2020 N 248",
        "official_edition_date": "2023-10-30",
        "effective_from": "2020-12-03"
      }
    },
    {
      "type": "Feature",
      "id": "order248-zone-04-part-1",
      "geometry": {
        "type": "Polygon",
        "coordinates": [
          [
            [
              30.91666667,
              55.61666667
            ],
            [
              31.16666667,
              56.91666667
            ],
            [
              32.55,
              57.35
            ],
            [
              34.56666667,
              58.2
            ],
            [
              35.81666667,
              58.58333333
            ],
            [
              45.0,
              58.76666667
            ],
            [
              46.93333333,
              58.16666667
            ],
            [
              46.75,
              57.23333333
            ],
            [
              46.43333333,
              55.6
            ],
            [
              46.58333333,
              54.81666667
            ],
            [
              43.85,
              54.63333333
            ],
            [
              42.46666667,
              53.5
            ],
            [
              42.86666667,
              52.33333333
            ],
            [
              42.58333333,
              51.53333333
            ],
            [
              43.03333333,
              50.75
            ],
            [
              40.16666667,
              49.36666667
            ],
            [
              30.91666667,
              55.61666667
            ]
          ]
        ]
      },
      "properties": {
        "feature_type": "es_orvd_zone",
        "zone_order_number": 4,
        "zone_part_number": 1,
        "zone_part_count": 1,
        "zone_name": "Московская зона",
        "horizontal_definition": "553700с 0305500в, 565500с 0311000в, 572100с 0323300в, 581200с 0343400в, 583500с 0354900в, 584600с 0450000в, 581000с 0465600в, 571400с 0464500в, 553600с 0462600в, 544900с 0463500в, 543800с 0435100в, 533000с 0422800в, 522000с 0425200в, 513200с 0423500в, 504500с 0430200в, 492200с 0401000в, далее по государственной границе до 553700с 0305500в",
        "vertical_definition": "Все высоты",
        "lower_limit": "GND",
        "lower_limit_inclusive": true,
        "upper_limit": "UNL",
        "upper_limit_inclusive": true,
        "geometry_source": "official_order_coordinates",
        "geometry_accuracy": "official_approximation",
        "geometry_note": "Segments described as following the state border are represented by straight lines between the boundary points stated in the order.",
        "source_table_row": 9,
        "amendment_notes": null,
        "official_source": "Приказ Минтранса России от 23.07.2020 N 248",
        "official_edition_date": "2023-10-30",
        "effective_from": "2020-12-03"
      }
    },
    {
      "type": "Feature",
      "id": "order248-zone-05-part-1",
      "geometry": {
        "type": "Polygon",
        "coordinates": [
          [
            [
              40.16666667,
              49.36666667
            ],
            [
              43.03333333,
              50.75
            ],
            [
              43.76666667,
              51.1
            ],
            [
              44.98333333,
              51.2
            ],
            [
              45.78333333,
              50.61666667
            ],
            [
              47.51666667,
              50.45
            ],
            [
              49.18666667,
              46.37333333
            ],
            [
              49.19666667,
              46.35833333
            ],
            [
              49.26666667,
              46.3
            ],
            [
              49.43333333,
              46.23333333
            ],
            [
              49.43333333,
              46.13333333
            ],
            [
              49.5,
              45.91666667
            ],
            [
              49.5,
              42.83333333
            ],
            [
              50.0,
              42.63333333
            ],
            [
              48.595,
              41.84
            ],
            [
              40.01166667,
              43.38333333
            ],
            [
              39.91666667,
              43.18833333
            ],
            [
              40.33333333,
              41.9
            ],
            [
              37.71666667,
              42.68333333
            ],
            [
              36.26666667,
              42.73333333
            ],
            [
              36.66666667,
              44.51666667
            ],
            [
              36.6,
              44.96666667
            ],
            [
              36.53333333,
              45.2
            ],
            [
              36.68333333,
              45.4
            ],
            [
              37.01666667,
              46.0
            ],
            [
              37.5,
              46.78333333
            ],
            [
              38.33333333,
              46.98333333
            ],
            [
              38.22333333,
              47.11166667
            ],
            [
              40.16666667,
              49.36666667
            ]
          ]
        ]
      },
      "properties": {
        "feature_type": "es_orvd_zone",
        "zone_order_number": 5,
        "zone_part_number": 1,
        "zone_part_count": 1,
        "zone_name": "Ростовская зона",
        "horizontal_definition": "492200с 0401000в, 504500с 0430200в, 510600с 0434600в, 511200с 0445900в, 503700с 0454700в, 502700с 0473100в, далее по государственной границе до 462224с 0491112в, 462130с 0491148в, 461800с 0491600в, 461400с 0492600в, 460800с 0492600в, 455500с 0493000в, 425000с 0493000в, 423800с 0500000в, 415024с 0483542в, далее по государственной границе до 432300с 0400042в, 431118с 0395500в, 415400с 0402000в, 424100с 0374300в, 424400с 0361600в, 443100с 0364000в, 445800с 0363600в, 451200с 0363200в, 452400с 0364100в, 460000с 0370100в, 464700с 0373000в, 465900с 0382000в, 470642с 0381324в, далее по государственной границе до 492200с 0401000в",
        "vertical_definition": "Все высоты",
        "lower_limit": "GND",
        "lower_limit_inclusive": true,
        "upper_limit": "UNL",
        "upper_limit_inclusive": true,
        "geometry_source": "official_order_coordinates",
        "geometry_accuracy": "official_approximation",
        "geometry_note": "Segments described as following the state border are represented by straight lines between the boundary points stated in the order.",
        "source_table_row": 10,
        "amendment_notes": null,
        "official_source": "Приказ Минтранса России от 23.07.2020 N 248",
        "official_edition_date": "2023-10-30",
        "effective_from": "2020-12-03"
      }
    },
    {
      "type": "Feature",
      "id": "order248-zone-06-part-1",
      "geometry": {
        "type": "Polygon",
        "coordinates": [
          [
            [
              34.96666667,
              45.75
            ],
            [
              36.0,
              46.15
            ],
            [
              37.01666667,
              46.0
            ],
            [
              36.68333333,
              45.4
            ],
            [
              36.53333333,
              45.2
            ],
            [
              36.6,
              44.96666667
            ],
            [
              36.66666667,
              44.51666667
            ],
            [
              36.26666667,
              42.73333333
            ],
            [
              34.0,
              42.78333333
            ],
            [
              30.75,
              42.8
            ],
            [
              30.53333333,
              43.68333333
            ],
            [
              30.4,
              44.25
            ],
            [
              30.15,
              44.76666667
            ],
            [
              32.41666667,
              45.9
            ],
            [
              32.78333333,
              45.81666667
            ],
            [
              33.1,
              45.9
            ],
            [
              33.45,
              45.93333333
            ],
            [
              33.48333333,
              45.98333333
            ],
            [
              34.96666667,
              45.75
            ]
          ]
        ]
      },
      "properties": {
        "feature_type": "es_orvd_zone",
        "zone_order_number": 6,
        "zone_part_number": 1,
        "zone_part_count": 1,
        "zone_name": "Симферопольская зона",
        "horizontal_definition": "454500с 0345800в, 460900с 0360000в, 460000с 0370100в, 452400с 0364100в, 451200с 0363200в, 445800с 0363600в, 443100с 0364000в, 424400с 0361600в, 424700с 0340000в, 424800с 0304500в, 434100с 0303200в, 441500с 0302400в, 444600с 0300900в, 455400с 0322500в, 454900с 0324700в, 455400с 0330600в, 455600с 0332700в, 455900с 0332900в, далее по государственной границе до 454500с 0345800в",
        "vertical_definition": "Все высоты",
        "lower_limit": "GND",
        "lower_limit_inclusive": true,
        "upper_limit": "UNL",
        "upper_limit_inclusive": true,
        "geometry_source": "official_order_coordinates",
        "geometry_accuracy": "official_approximation",
        "geometry_note": "Segments described as following the state border are represented by straight lines between the boundary points stated in the order.",
        "source_table_row": 11,
        "amendment_notes": "(в ред. Приказа Минтранса России от 28.06.2021 N 217)",
        "official_source": "Приказ Минтранса России от 23.07.2020 N 248",
        "official_edition_date": "2023-10-30",
        "effective_from": "2020-12-03"
      }
    },
    {
      "type": "Feature",
      "id": "order248-zone-07-part-1",
      "geometry": {
        "type": "Polygon",
        "coordinates": [
          [
            [
              47.51666667,
              50.45
            ],
            [
              45.78333333,
              50.61666667
            ],
            [
              44.98333333,
              51.2
            ],
            [
              43.76666667,
              51.1
            ],
            [
              43.03333333,
              50.75
            ],
            [
              42.58333333,
              51.53333333
            ],
            [
              42.86666667,
              52.33333333
            ],
            [
              42.46666667,
              53.5
            ],
            [
              43.85,
              54.63333333
            ],
            [
              46.58333333,
              54.81666667
            ],
            [
              46.43333333,
              55.6
            ],
            [
              46.75,
              57.23333333
            ],
            [
              47.91666667,
              57.3
            ],
            [
              50.8,
              56.46666667
            ],
            [
              51.88333333,
              56.36666667
            ],
            [
              52.2,
              56.41666667
            ],
            [
              53.66666667,
              56.5
            ],
            [
              56.08333333,
              56.5
            ],
            [
              57.88333333,
              55.7
            ],
            [
              58.65,
              54.2
            ],
            [
              57.56666667,
              53.26666667
            ],
            [
              58.31666667,
              52.58333333
            ],
            [
              60.0,
              51.98333333
            ],
            [
              47.51666667,
              50.45
            ]
          ]
        ]
      },
      "properties": {
        "feature_type": "es_orvd_zone",
        "zone_order_number": 7,
        "zone_part_number": 1,
        "zone_part_count": 1,
        "zone_name": "Самарская зона",
        "horizontal_definition": "502700с 0473100в, 503700с 0454700в, 511200с 0445900в, 510600с 0434600в, 504500с 0430200в, 513200с 0423500в, 522000с 0425200в, 533000с 0422800в, 543800с 0435100в, 544900с 0463500в, 553600с 0462600в, 571400с 0464500в, 571800с 0475500в, 562800с 0504800в, 562200с 0515300в, 562500с 0521200в, 563000с 0534000в, 563000с 0560500в, 554200с 0575300в, 541200с 0583900в, 531600с 0573400в, 523500с 0581900в, 515900с 0600000в, далее по государственной границе до 502700с 0473100в",
        "vertical_definition": "Все высоты",
        "lower_limit": "GND",
        "lower_limit_inclusive": true,
        "upper_limit": "UNL",
        "upper_limit_inclusive": true,
        "geometry_source": "official_order_coordinates",
        "geometry_accuracy": "official_approximation",
        "geometry_note": "Segments described as following the state border are represented by straight lines between the boundary points stated in the order.",
        "source_table_row": 13,
        "amendment_notes": null,
        "official_source": "Приказ Минтранса России от 23.07.2020 N 248",
        "official_edition_date": "2023-10-30",
        "effective_from": "2020-12-03"
      }
    },
    {
      "type": "Feature",
      "id": "order248-zone-08-part-1",
      "geometry": {
        "type": "Polygon",
        "coordinates": [
          [
            [
              60.0,
              51.98333333
            ],
            [
              58.31666667,
              52.58333333
            ],
            [
              57.56666667,
              53.26666667
            ],
            [
              58.65,
              54.2
            ],
            [
              57.88333333,
              55.7
            ],
            [
              56.08333333,
              56.5
            ],
            [
              53.66666667,
              56.5
            ],
            [
              52.2,
              56.41666667
            ],
            [
              51.88333333,
              56.36666667
            ],
            [
              50.8,
              56.46666667
            ],
            [
              47.91666667,
              57.3
            ],
            [
              46.75,
              57.23333333
            ],
            [
              46.93333333,
              58.16666667
            ],
            [
              45.0,
              58.76666667
            ],
            [
              45.5,
              59.51666667
            ],
            [
              46.33333333,
              60.06666667
            ],
            [
              48.66666667,
              60.33333333
            ],
            [
              50.0,
              60.0
            ],
            [
              52.0,
              60.0
            ],
            [
              55.7,
              60.71666667
            ],
            [
              57.21666667,
              61.16666667
            ],
            [
              59.5,
              62.0
            ],
            [
              63.2,
              62.08333333
            ],
            [
              63.66666667,
              61.28333333
            ],
            [
              63.7,
              60.75
            ],
            [
              64.13333333,
              59.5
            ],
            [
              63.73333333,
              59.03333333
            ],
            [
              64.13333333,
              57.81666667
            ],
            [
              63.75,
              57.38333333
            ],
            [
              63.75,
              57.0
            ],
            [
              65.03333333,
              56.86666667
            ],
            [
              68.33333333,
              55.81666667
            ],
            [
              69.21666667,
              55.66666667
            ],
            [
              69.15,
              55.4
            ],
            [
              60.0,
              51.98333333
            ]
          ]
        ]
      },
      "properties": {
        "feature_type": "es_orvd_zone",
        "zone_order_number": 8,
        "zone_part_number": 1,
        "zone_part_count": 1,
        "zone_name": "Екатеринбургская зона",
        "horizontal_definition": "515900с 0600000в, 523500с 0581900в, 531600с 0573400в, 541200с 0583900в, 554200с 0575300в, 563000с 0560500в, 563000с 0534000в, 562500с 0521200в, 562200с 0515300в, 562800с 0504800в, 571800с 0475500в, 571400с 0464500в, 581000с 0465600в, 584600с 0450000в, 593100с 0453000в, 600400с 0462000в, 602000с 0484000в, 600000с 0500000в, 600000с 0520000в, 604300с 0554200в, 611000с 0571300в, 620000с 0593000в, 620500с 0631200в, 611700с 0634000в, 604500с 0634200в, 593000с 0640800в, 590200с 0634400в, 574900с 0640800в, 572300с 0634500в, 570000с 0634500в, 565200с 0650200в, 554900с 0682000в, 554000с 0691300в, 552400с 0690900в, далее по государственной границе до 515900с 0600000в",
        "vertical_definition": "Все высоты",
        "lower_limit": "GND",
        "lower_limit_inclusive": true,
        "upper_limit": "UNL",
        "upper_limit_inclusive": true,
        "geometry_source": "official_order_coordinates",
        "geometry_accuracy": "official_approximation",
        "geometry_note": "Segments described as following the state border are represented by straight lines between the boundary points stated in the order.",
        "source_table_row": 14,
        "amendment_notes": null,
        "official_source": "Приказ Минтранса России от 23.07.2020 N 248",
        "official_edition_date": "2023-10-30",
        "effective_from": "2020-12-03"
      }
    },
    {
      "type": "Feature",
      "id": "order248-zone-09-part-1",
      "geometry": {
        "type": "Polygon",
        "coordinates": [
          [
            [
              70.91666667,
              73.66666667
            ],
            [
              74.46666667,
              72.98333333
            ],
            [
              76.0,
              71.88333333
            ],
            [
              78.58333333,
              70.86666667
            ],
            [
              80.0,
              68.66666667
            ],
            [
              81.66666667,
              67.4
            ],
            [
              82.78333333,
              66.55
            ],
            [
              84.8,
              63.45
            ],
            [
              83.0,
              60.91666667
            ],
            [
              80.16666667,
              60.66666667
            ],
            [
              77.38333333,
              60.95
            ],
            [
              77.03333333,
              60.85
            ],
            [
              77.05,
              60.71666667
            ],
            [
              76.48333333,
              60.35
            ],
            [
              73.86666667,
              59.0
            ],
            [
              72.8,
              58.16666667
            ],
            [
              71.16666667,
              57.7
            ],
            [
              69.21666667,
              55.66666667
            ],
            [
              68.33333333,
              55.81666667
            ],
            [
              65.03333333,
              56.86666667
            ],
            [
              63.75,
              57.0
            ],
            [
              63.75,
              57.38333333
            ],
            [
              64.13333333,
              57.81666667
            ],
            [
              63.73333333,
              59.03333333
            ],
            [
              64.13333333,
              59.5
            ],
            [
              63.7,
              60.75
            ],
            [
              63.66666667,
              61.28333333
            ],
            [
              63.2,
              62.08333333
            ],
            [
              59.5,
              62.0
            ],
            [
              59.71666667,
              63.2
            ],
            [
              60.06666667,
              64.46666667
            ],
            [
              63.43333333,
              66.46666667
            ],
            [
              67.03333333,
              67.4
            ],
            [
              68.0,
              68.43333333
            ],
            [
              66.78333333,
              68.86666667
            ],
            [
              65.66666667,
              70.83333333
            ],
            [
              66.28333333,
              71.5
            ],
            [
              68.66666667,
              73.66666667
            ],
            [
              70.91666667,
              73.66666667
            ]
          ]
        ]
      },
      "properties": {
        "feature_type": "es_orvd_zone",
        "zone_order_number": 9,
        "zone_part_number": 1,
        "zone_part_count": 1,
        "zone_name": "Тюменская зона",
        "horizontal_definition": "734000с 0705500в, 725900с 0742800в, 715300с 0760000в, 705200с 0783500в, 684000с 0800000в, 672400с 0814000в, 663300с 0824700в, 632700с 0844800в, 605500с 0830000в, 604000с 0801000в, 605700с 0772300в, 605100с 0770200в, 604300с 0770300в, 602100с 0762900в, 590000с 0735200в, 581000с 0724800в, 574200с 0711000в, 554000с 0691300в, 554900с 0682000в, 565200с 0650200в, 570000с 0634500в, 572300с 0634500в, 574900с 0640800в, 590200с 0634400в, 593000с 0640800в, 604500с 0634200в, 611700с 0634000в, 620500с 0631200в, 620000с 0593000в, 631200с 0594300в, 642800с 0600400в, 662800с 0632600в, 672400с 0670200в, 682600с 0680000в, 685200с 0664700в, 705000с 0654000в, 713000с 0661700в, 734000с 0684000в, 734000с 0705500в",
        "vertical_definition": "Все высоты",
        "lower_limit": "GND",
        "lower_limit_inclusive": true,
        "upper_limit": "UNL",
        "upper_limit_inclusive": true,
        "geometry_source": "official_order_coordinates",
        "geometry_accuracy": "official_coordinates",
        "geometry_note": null,
        "source_table_row": 15,
        "amendment_notes": null,
        "official_source": "Приказ Минтранса России от 23.07.2020 N 248",
        "official_edition_date": "2023-10-30",
        "effective_from": "2020-12-03"
      }
    },
    {
      "type": "Feature",
      "id": "order248-zone-10-part-1",
      "geometry": {
        "type": "Polygon",
        "coordinates": [
          [
            [
              69.15,
              55.4
            ],
            [
              69.21666667,
              55.66666667
            ],
            [
              71.16666667,
              57.7
            ],
            [
              72.8,
              58.16666667
            ],
            [
              73.86666667,
              59.0
            ],
            [
              76.48333333,
              60.35
            ],
            [
              77.05,
              60.71666667
            ],
            [
              77.03333333,
              60.85
            ],
            [
              77.38333333,
              60.95
            ],
            [
              80.16666667,
              60.66666667
            ],
            [
              83.0,
              60.91666667
            ],
            [
              87.93333333,
              58.75
            ],
            [
              88.16666667,
              57.35
            ],
            [
              89.08333333,
              56.06666667
            ],
            [
              88.66666667,
              54.58333333
            ],
            [
              89.05,
              52.83333333
            ],
            [
              88.28333333,
              51.53333333
            ],
            [
              89.45,
              51.0
            ],
            [
              89.66666667,
              49.93333333
            ],
            [
              69.15,
              55.4
            ]
          ]
        ]
      },
      "properties": {
        "feature_type": "es_orvd_zone",
        "zone_order_number": 10,
        "zone_part_number": 1,
        "zone_part_count": 1,
        "zone_name": "Новосибирская зона",
        "horizontal_definition": "552400с 0690900в, 554000с 0691300в, 574200с 0711000в, 581000с 0724800в, 590000с 0735200в, 602100с 0762900в, 604300с 0770300в, 605100с 0770200в, 605700с 0772300в, 604000с 0801000в, 605500с 0830000в, 584500с 0875600в, 572100с 0881000в, 560400с 0890500в, 543500с 0884000в, 525000с 0890300в, 513200с 0881700в, 510000с 0892700в, 495600с 0894000в, далее по государственной границе до 552400с 0690900в",
        "vertical_definition": "Все высоты",
        "lower_limit": "GND",
        "lower_limit_inclusive": true,
        "upper_limit": "UNL",
        "upper_limit_inclusive": true,
        "geometry_source": "official_order_coordinates",
        "geometry_accuracy": "official_approximation",
        "geometry_note": "Segments described as following the state border are represented by straight lines between the boundary points stated in the order.",
        "source_table_row": 16,
        "amendment_notes": null,
        "official_source": "Приказ Минтранса России от 23.07.2020 N 248",
        "official_edition_date": "2023-10-30",
        "effective_from": "2020-12-03"
      }
    },
    {
      "type": "Feature",
      "id": "order248-zone-11-part-1",
      "geometry": {
        "type": "Polygon",
        "coordinates": [
          [
            [
              89.66666667,
              49.93333333
            ],
            [
              89.45,
              51.0
            ],
            [
              88.28333333,
              51.53333333
            ],
            [
              89.05,
              52.83333333
            ],
            [
              88.66666667,
              54.58333333
            ],
            [
              89.08333333,
              56.06666667
            ],
            [
              88.16666667,
              57.35
            ],
            [
              87.93333333,
              58.75
            ],
            [
              83.0,
              60.91666667
            ],
            [
              84.8,
              63.45
            ],
            [
              82.78333333,
              66.55
            ],
            [
              81.66666667,
              67.4
            ],
            [
              80.0,
              68.66666667
            ],
            [
              78.58333333,
              70.86666667
            ],
            [
              76.0,
              71.88333333
            ],
            [
              74.46666667,
              72.98333333
            ],
            [
              70.91666667,
              73.66666667
            ],
            [
              70.68333333,
              74.5
            ],
            [
              81.83333333,
              75.33333333
            ],
            [
              89.5,
              77.33333333
            ],
            [
              114.75,
              78.0
            ],
            [
              114.71666667,
              76.33333333
            ],
            [
              114.73333333,
              73.83333333
            ],
            [
              112.0,
              72.0
            ],
            [
              106.5,
              69.25
            ],
            [
              106.91666667,
              67.0
            ],
            [
              107.0,
              65.5
            ],
            [
              107.0,
              62.0
            ],
            [
              108.03333333,
              61.26666667
            ],
            [
              106.7,
              60.76666667
            ],
            [
              102.5,
              58.05
            ],
            [
              100.68333333,
              57.93333333
            ],
            [
              97.53333333,
              57.45
            ],
            [
              98.0,
              55.93333333
            ],
            [
              96.0,
              54.0
            ],
            [
              97.3,
              53.58333333
            ],
            [
              99.0,
              52.88333333
            ],
            [
              99.0,
              52.1
            ],
            [
              89.66666667,
              49.93333333
            ]
          ]
        ]
      },
      "properties": {
        "feature_type": "es_orvd_zone",
        "zone_order_number": 11,
        "zone_part_number": 1,
        "zone_part_count": 1,
        "zone_name": "Красноярская зона",
        "horizontal_definition": "495600с 0894000в, 510000с 0892700в, 513200с 0881700в, 525000с 0890300в, 543500с 0884000в, 560400с 0890500в, 572100с 0881000в, 584500с 0875600в, 605500с 0830000в, 632700с 0844800в, 663300с 0824700в, 672400с 0814000в, 684000с 0800000в, 705200с 0783500в, 715300с 0760000в, 725900с 0742800в, 734000с 0705500в, 743000с 0704100в, 752000с 0815000в, 772000с 0893000в, 780000с 1144500в, 762000с 1144300в, 735000с 1144400в, 720000с 1120000в, 691500с 1063000в, 670000с 1065500в, 653000с 1070000в, 620000с 1070000в, 611600с 1080200в, 604600с 1064200в, 580300с 1023000в, 575600с 1004100в, 572700с 0973200в, 555600с 0980000в, 540000с 0960000в, 533500с 0971800в, 525300с 0990000в, 520600с 0990000в, далее по государственной границе до 495600с 0894000в",
        "vertical_definition": "Все высоты",
        "lower_limit": "GND",
        "lower_limit_inclusive": true,
        "upper_limit": "UNL",
        "upper_limit_inclusive": true,
        "geometry_source": "official_order_coordinates",
        "geometry_accuracy": "official_approximation",
        "geometry_note": "Segments described as following the state border are represented by straight lines between the boundary points stated in the order.",
        "source_table_row": 17,
        "amendment_notes": null,
        "official_source": "Приказ Минтранса России от 23.07.2020 N 248",
        "official_edition_date": "2023-10-30",
        "effective_from": "2020-12-03"
      }
    },
    {
      "type": "Feature",
      "id": "order248-zone-12-part-1",
      "geometry": {
        "type": "Polygon",
        "coordinates": [
          [
            [
              99.0,
              52.1
            ],
            [
              99.0,
              52.88333333
            ],
            [
              97.3,
              53.58333333
            ],
            [
              96.0,
              54.0
            ],
            [
              98.0,
              55.93333333
            ],
            [
              97.53333333,
              57.45
            ],
            [
              100.68333333,
              57.93333333
            ],
            [
              102.5,
              58.05
            ],
            [
              106.7,
              60.76666667
            ],
            [
              108.03333333,
              61.26666667
            ],
            [
              108.78333333,
              60.71666667
            ],
            [
              113.88333333,
              59.31666667
            ],
            [
              114.86666667,
              59.6
            ],
            [
              119.33333333,
              58.41666667
            ],
            [
              119.66666667,
              56.68333333
            ],
            [
              122.33333333,
              55.5
            ],
            [
              121.98333333,
              53.96666667
            ],
            [
              122.33333333,
              53.5
            ],
            [
              99.0,
              52.1
            ]
          ]
        ]
      },
      "properties": {
        "feature_type": "es_orvd_zone",
        "zone_order_number": 12,
        "zone_part_number": 1,
        "zone_part_count": 1,
        "zone_name": "Иркутская зона",
        "horizontal_definition": "520600с 0990000в, 525300с 0990000в, 533500с 0971800в, 540000с 0960000в, 555600с 0980000в, 572700с 0973200в, 575600с 1004100в, 580300с 1023000в, 604600с 1064200в, 611600с 1080200в, 604300с 1084700в, 591900с 1135300в, 593600с 1145200в, 582500с 1192000в, 564100с 1194000в, 553000с 1222000в, 535800с 1215900в, 533000с 1222000в, далее по государственной границе до 520600с 0990000в",
        "vertical_definition": "Все высоты",
        "lower_limit": "GND",
        "lower_limit_inclusive": true,
        "upper_limit": "UNL",
        "upper_limit_inclusive": true,
        "geometry_source": "official_order_coordinates",
        "geometry_accuracy": "official_approximation",
        "geometry_note": "Segments described as following the state border are represented by straight lines between the boundary points stated in the order.",
        "source_table_row": 18,
        "amendment_notes": null,
        "official_source": "Приказ Минтранса России от 23.07.2020 N 248",
        "official_edition_date": "2023-10-30",
        "effective_from": "2020-12-03"
      }
    },
    {
      "type": "Feature",
      "id": "order248-zone-14-part-1",
      "geometry": {
        "type": "MultiPolygon",
        "coordinates": [
          [
            [
              [
                180,
                86.24072455
              ],
              [
                180,
                60.0
              ],
              [
                169.0,
                54.0
              ],
              [
                150.0,
                45.0
              ],
              [
                150.0,
                54.86666667
              ],
              [
                146.0,
                56.0
              ],
              [
                143.41666667,
                56.41666667
              ],
              [
                145.75,
                58.0
              ],
              [
                146.0,
                61.0
              ],
              [
                145.0,
                62.0
              ],
              [
                145.5,
                63.56666667
              ],
              [
                149.66666667,
                64.0
              ],
              [
                158.0,
                65.75
              ],
              [
                158.0,
                66.55
              ],
              [
                162.0,
                66.55
              ],
              [
                165.0,
                68.66666667
              ],
              [
                168.0,
                70.5
              ],
              [
                168.0,
                72.5
              ],
              [
                158.0,
                72.0
              ],
              [
                151.0,
                75.13333333
              ],
              [
                146.5,
                75.58333333
              ],
              [
                114.75,
                78.0
              ],
              [
                180,
                86.24072455
              ]
            ]
          ],
          [
            [
              [
                -180,
                86.24072455
              ],
              [
                -168.97333333,
                87.63333333
              ],
              [
                -168.97333333,
                65.0
              ],
              [
                -172.2,
                64.05
              ],
              [
                -177.75166667,
                61.33666667
              ],
              [
                -180.0,
                60.0
              ],
              [
                -180,
                86.24072455
              ]
            ]
          ]
        ]
      },
      "properties": {
        "feature_type": "es_orvd_zone",
        "zone_order_number": 14,
        "zone_part_number": 1,
        "zone_part_count": 2,
        "zone_name": "Магаданская зона",
        "horizontal_definition": "873800с 1685824з, 650000с 1685824з, 640300с 1721200з, 612012с 1774506з, 600000с 1800000в, 540000с 1690000в, 450000с 1500000в, 545200с 1500000в, 560000с 1460000в, 562500с 1432500в, 580000с 1454500в, 610000с 1460000в, 620000с 1450000в, 633400с 1453000в, 640000с 1494000в, 654500с 1580000в, 663300с 1580000в, 663300с 1620000в, 684000с 1650000в, 703000с 1680000в, 723000с 1680000в, 720000с 1580000в, 750800с 1510000в, 753500с 1463000в, 780000с 1144500в, 873800с 1685824з",
        "vertical_definition": "Все высоты",
        "lower_limit": "GND",
        "lower_limit_inclusive": true,
        "upper_limit": "UNL",
        "upper_limit_inclusive": true,
        "geometry_source": "official_order_coordinates",
        "geometry_accuracy": "official_coordinates",
        "geometry_note": null,
        "source_table_row": 20,
        "amendment_notes": null,
        "official_source": "Приказ Минтранса России от 23.07.2020 N 248",
        "official_edition_date": "2023-10-30",
        "effective_from": "2020-12-03"
      }
    },
    {
      "type": "Feature",
      "id": "order248-zone-14-part-2",
      "geometry": {
        "type": "Polygon",
        "coordinates": [
          [
            [
              114.75,
              78.0
            ],
            [
              146.5,
              75.58333333
            ],
            [
              151.0,
              75.13333333
            ],
            [
              158.0,
              72.0
            ],
            [
              143.58333333,
              73.2
            ],
            [
              132.0,
              74.33333333
            ],
            [
              114.71666667,
              76.33333333
            ],
            [
              114.75,
              78.0
            ]
          ]
        ]
      },
      "properties": {
        "feature_type": "es_orvd_zone",
        "zone_order_number": 14,
        "zone_part_number": 2,
        "zone_part_count": 2,
        "zone_name": "Магаданская зона",
        "horizontal_definition": "780000с 1144500в, 753500с 1463000в, 750800с 1510000в, 720000с 1580000в, 731200с 1433500в, 742000с 1320000в, 762000с 1144300в, 780000с 1144500в",
        "vertical_definition": "Выше FL120 <3>",
        "lower_limit": "FL120",
        "lower_limit_inclusive": false,
        "upper_limit": "UNL",
        "upper_limit_inclusive": true,
        "geometry_source": "official_order_coordinates",
        "geometry_accuracy": "official_coordinates",
        "geometry_note": null,
        "source_table_row": 21,
        "amendment_notes": "(в ред. Приказа Минтранса России от 28.06.2021 N 217)",
        "official_source": "Приказ Минтранса России от 23.07.2020 N 248",
        "official_edition_date": "2023-10-30",
        "effective_from": "2020-12-03"
      }
    },
    {
      "type": "Feature",
      "id": "order248-zone-15-part-1",
      "geometry": {
        "type": "Polygon",
        "coordinates": [
          [
            [
              122.33333333,
              53.5
            ],
            [
              121.98333333,
              53.96666667
            ],
            [
              122.33333333,
              55.5
            ],
            [
              124.91666667,
              55.71666667
            ],
            [
              125.55,
              55.38333333
            ],
            [
              126.36777778,
              54.93888889
            ],
            [
              128.16666667,
              54.66666667
            ],
            [
              129.38333333,
              54.85
            ],
            [
              131.0,
              56.16666667
            ],
            [
              131.4,
              56.91666667
            ],
            [
              131.66666667,
              57.26666667
            ],
            [
              132.0,
              58.0
            ],
            [
              135.33333333,
              59.16666667
            ],
            [
              138.16666667,
              59.75
            ],
            [
              139.95,
              60.85
            ],
            [
              142.0,
              62.0
            ],
            [
              145.0,
              62.0
            ],
            [
              146.0,
              61.0
            ],
            [
              145.75,
              58.0
            ],
            [
              143.41666667,
              56.41666667
            ],
            [
              146.0,
              56.0
            ],
            [
              150.0,
              54.86666667
            ],
            [
              150.0,
              45.0
            ],
            [
              146.83333333,
              43.0
            ],
            [
              146.21666667,
              43.2
            ],
            [
              145.73333333,
              44.45
            ],
            [
              145.66666667,
              44.5
            ],
            [
              142.0,
              45.75
            ],
            [
              140.0,
              45.75
            ],
            [
              136.0,
              40.55
            ],
            [
              135.93333333,
              40.5
            ],
            [
              131.51666667,
              41.66666667
            ],
            [
              130.69666667,
              42.29333333
            ],
            [
              122.33333333,
              53.5
            ]
          ]
        ]
      },
      "properties": {
        "feature_type": "es_orvd_zone",
        "zone_order_number": 15,
        "zone_part_number": 1,
        "zone_part_count": 1,
        "zone_name": "Хабаровская зона",
        "horizontal_definition": "533000с 1222000в, 535800с 1215900в, 553000с 1222000в, 554300с 1245500в, 552300с 1253300в, 545620с 1262204в, 544000с 1281000в, 545100с 1292300в, 561000с 1310000в, 565500с 1312400в, 571600с 1314000в, 580000с 1320000в, 591000с 1352000в, 594500с 1381000в, 605100с 1395700в, 620000с 1420000в, 620000с 1450000в, 610000с 1460000в, 580000с 1454500в, 562500с 1432500в, 560000с 1460000в, 545200с 1500000в, 450000с 1500000в, 430000с 1465000в, 431200с 1461300в, далее по государственной границе до 442700с 1454400в, 443000с 1454000в, 454500с 1420000в, 454500с 1400000в, 403300с 1360000в, 403000с 1355600в, 414000с 1313100в, 421736с 1304148в, далее по государственной границе до 533000с 1222000в",
        "vertical_definition": "Все высоты",
        "lower_limit": "GND",
        "lower_limit_inclusive": true,
        "upper_limit": "UNL",
        "upper_limit_inclusive": true,
        "geometry_source": "official_order_coordinates",
        "geometry_accuracy": "official_approximation",
        "geometry_note": "Segments described as following the state border are represented by straight lines between the boundary points stated in the order.",
        "source_table_row": 23,
        "amendment_notes": "(п. 15 в ред. Приказа Минтранса России от 30.10.2023 N 358)",
        "official_source": "Приказ Минтранса России от 23.07.2020 N 248",
        "official_edition_date": "2023-10-30",
        "effective_from": "2020-12-03"
      }
    },
    {
      "type": "Feature",
      "id": "order248-zone-16-part-1",
      "geometry": {
        "type": "Polygon",
        "coordinates": [
          [
            [
              114.71666667,
              76.33333333
            ],
            [
              132.0,
              74.33333333
            ],
            [
              143.58333333,
              73.2
            ],
            [
              158.0,
              72.0
            ],
            [
              168.0,
              72.5
            ],
            [
              168.0,
              70.5
            ],
            [
              165.0,
              68.66666667
            ],
            [
              162.0,
              66.55
            ],
            [
              158.0,
              66.55
            ],
            [
              158.0,
              65.75
            ],
            [
              149.66666667,
              64.0
            ],
            [
              145.5,
              63.56666667
            ],
            [
              145.0,
              62.0
            ],
            [
              142.0,
              62.0
            ],
            [
              139.95,
              60.85
            ],
            [
              138.16666667,
              59.75
            ],
            [
              135.33333333,
              59.16666667
            ],
            [
              132.0,
              58.0
            ],
            [
              131.66666667,
              57.26666667
            ],
            [
              131.4,
              56.91666667
            ],
            [
              131.0,
              56.16666667
            ],
            [
              129.38333333,
              54.85
            ],
            [
              128.16666667,
              54.66666667
            ],
            [
              126.36777778,
              54.93888889
            ],
            [
              125.55,
              55.38333333
            ],
            [
              124.91666667,
              55.71666667
            ],
            [
              122.33333333,
              55.5
            ],
            [
              119.66666667,
              56.68333333
            ],
            [
              119.33333333,
              58.41666667
            ],
            [
              114.86666667,
              59.6
            ],
            [
              113.88333333,
              59.31666667
            ],
            [
              108.78333333,
              60.71666667
            ],
            [
              108.03333333,
              61.26666667
            ],
            [
              107.0,
              62.0
            ],
            [
              107.0,
              65.5
            ],
            [
              106.91666667,
              67.0
            ],
            [
              106.5,
              69.25
            ],
            [
              112.0,
              72.0
            ],
            [
              114.73333333,
              73.83333333
            ],
            [
              114.71666667,
              76.33333333
            ]
          ]
        ]
      },
      "properties": {
        "feature_type": "es_orvd_zone",
        "zone_order_number": 16,
        "zone_part_number": 1,
        "zone_part_count": 2,
        "zone_name": "Якутская зона",
        "horizontal_definition": "762000с 1144300в, 742000с 1320000в, 731200с 1433500в, 720000с 1580000в, 723000с 1680000в, 703000с 1680000в, 684000с 1650000в, 663300с 1620000в, 663300с 1580000в, 654500с 1580000в, 640000с 1494000в, 633400с 1453000в, 620000с 1450000в, 620000с 1420000в, 605100с 1395700в, 594500с 1381000в, 591000с 1352000в, 580000с 1320000в, 571600с 1314000в, 565500с 1312400в, 561000с 1310000в, 545100с 1292300в, 544000с 1281000в, 545620с 1262204в, 552300с 1253300в, 554300с 1245500в, 553000с 1222000в, 564100с 1194000в, 582500с 1192000в, 593600с 1145200в, 591900с 1135300в, 604300с 1084700в, 611600с 1080200в, 620000с 1070000в, 653000с 1070000в, 670000с 1065500в, 691500с 1063000в, 720000с 1120000в, 735000с 1144400в, 762000с 1144300в",
        "vertical_definition": "Все высоты",
        "lower_limit": "GND",
        "lower_limit_inclusive": true,
        "upper_limit": "UNL",
        "upper_limit_inclusive": true,
        "geometry_source": "official_order_coordinates",
        "geometry_accuracy": "official_coordinates",
        "geometry_note": null,
        "source_table_row": 25,
        "amendment_notes": null,
        "official_source": "Приказ Минтранса России от 23.07.2020 N 248",
        "official_edition_date": "2023-10-30",
        "effective_from": "2020-12-03"
      }
    },
    {
      "type": "Feature",
      "id": "order248-zone-16-part-2",
      "geometry": {
        "type": "Polygon",
        "coordinates": [
          [
            [
              114.75,
              78.0
            ],
            [
              146.5,
              75.58333333
            ],
            [
              151.0,
              75.13333333
            ],
            [
              158.0,
              72.0
            ],
            [
              143.58333333,
              73.2
            ],
            [
              132.0,
              74.33333333
            ],
            [
              114.71666667,
              76.33333333
            ],
            [
              114.75,
              78.0
            ]
          ]
        ]
      },
      "properties": {
        "feature_type": "es_orvd_zone",
        "zone_order_number": 16,
        "zone_part_number": 2,
        "zone_part_count": 2,
        "zone_name": "Якутская зона",
        "horizontal_definition": "780000с 1144500в, 753500с 1463000в, 750800с 1510000в, 720000с 1580000в, 731200с 1433500в, 742000с 1320000в, 762000с 1144300в, 780000с 1144500в",
        "vertical_definition": "От земли до FL120",
        "lower_limit": "GND",
        "lower_limit_inclusive": true,
        "upper_limit": "FL120",
        "upper_limit_inclusive": true,
        "geometry_source": "official_order_coordinates",
        "geometry_accuracy": "official_coordinates",
        "geometry_note": null,
        "source_table_row": 26,
        "amendment_notes": "(п. 16 в ред. Приказа Минтранса России от 30.10.2023 N 358)",
        "official_source": "Приказ Минтранса России от 23.07.2020 N 248",
        "official_edition_date": "2023-10-30",
        "effective_from": "2020-12-03"
      }
    }
  ]
}